URL,Name,Address,Website,Phone,Phone Number,Latitude,Longitude,
https://www.google.com/maps/place/EDIA/data=!4m7!3m6!1s0x390cfb3e3f468a1d:0xa20aa5a10c9de3f7!8m2!3d28.6822709!4d77.3127341!16s%2Fg%2F11fmlwl3fp!19sChIJHYpGPz77DDkR9-OdDKGlCqI?authuser=0&hl=en&rclk=1,EDIA,"81-A, Pocket-A, Block A, Dilshad Garden, Delhi, 110095",https://edia1.co.in/,9811991588,9811991588,28.6822709,77.3127341,
https://www.google.com/maps/place/PHOENIX+ACADEMIA/data=!4m7!3m6!1s0x390ce3277c834719:0xace8ce6309fb80c1!8m2!3d28.5418375!4d77.2036432!16s%2Fg%2F11fphhk5v5!19sChIJGUeDfCfjDDkRwYD7CWPO6Kw?authuser=0&hl=en&rclk=1,PHOENIX ACADEMIA,"58/1, Kalu Sarai, opp. sarvpriya vihar, Vijay Mandal Enclave, Kalu Sarai, New Delhi, Delhi 110016",Not Found,7703985005,7703985005,28.5418375,77.2036432,
https://www.google.com/maps/place/LearninGuru+%7C+Overseas+Education+Consultant/data=!4m7!3m6!1s0x390ce25b1263dab5:0x78832fc12ef6ae66!8m2!3d28.5678454!4d77.2244222!16s%2Fg%2F11b6sj_mrj!19sChIJtdpjElviDDkRZq72LsEvg3g?authuser=0&hl=en&rclk=1,LearninGuru | Overseas Education Consultant,"M-3 Basement, Ring Rd, below Kotak Mahindra Bank, South Extension II, New Delhi, Delhi 110049",https://learninguru.com/,9910367036,9910367036,28.5678454,77.2244222,
https://www.google.com/maps/place/American+Institute+of+English+Language+Pvt.+Ltd./data=!4m7!3m6!1s0x390ce25eaf9c7ddb:0x8adf033e690d6828!8m2!3d28.5700013!4d77.2198247!16s%2Fg%2F12h_csggs!19sChIJ232cr17iDDkRKGgNaT4D34o?authuser=0&hl=en&rclk=1,American Institute of English Language Pvt. Ltd.,"E-20 First floor, South Extension I, Block E, New Delhi, Delhi 110049",http://www.americaninstitutedelhi.in/,9250723413,9250723413,28.5700013,77.2198247,
https://www.google.com/maps/place/AVIONTUS/data=!4m7!3m6!1s0x390d059b378a908b:0xbfdcab1e92b59c33!8m2!3d28.6296809!4d77.0796503!16s%2Fg%2F11h1bp85lw!19sChIJi5CKN5sFDTkRM5y1kh6r3L8?authuser=0&hl=en&rclk=1,AVIONTUS,"UG-17, Westend Mall, Janakpuri West, Delhi, 110058",http://www.aviontus.com/,8448236360,8448236360,28.6296809,77.0796503,
https://www.google.com/maps/place/Magoosh+-+GRE+%7C+GMAT+%7C+SAT+%7C+ACT+%7C+TOEFL+%7C+IELTS/data=!4m7!3m6!1s0x390d1d2831ca2d33:0xa0c28c53e1399aea!8m2!3d28.5383669!4d77.1981759!16s%2Fg%2F11nymg_zk9!19sChIJMy3KMSgdDTkR6po54VOMwqA?authuser=0&hl=en&rclk=1,Magoosh - GRE | GMAT | SAT | ACT | TOEFL | IELTS,"97/1, Upper Ground Floor, Sri Aurobindo Marg, Adhchini Village, Qutab Enclave, New Delhi, Delhi 110017",http://www.learnerscortex.com/,9566252166,9566252166,28.5383669,77.1981759,
https://www.google.com/maps/place/Wisdom+Mart/data=!4m7!3m6!1s0x390ce20d3cd08137:0xce11744db1716f77!8m2!3d28.5520017!4d77.2038874!16s%2Fg%2F1tcxy63r!19sChIJN4HQPA3iDDkRd29xsU10Ec4?authuser=0&hl=en&rclk=1,Wisdom Mart,"202, 207, Sri Aurobindo Marg, Hauz Khas, New Delhi, Delhi 110016",https://wisdommart.com/,9873629442,9873629442,28.5520017,77.2038874,
https://www.google.com/maps/place/sai+ielts/data=!4m7!3m6!1s0x390ce21ebd555fa5:0xff9090580ce1ff86!8m2!3d28.6032398!4d77.4504142!16s%2Fg%2F11j1hynd4z!19sChIJpV9VvR7iDDkRhv_hDFiQkP8?authuser=0&hl=en&rclk=1,sai ielts,"GROUND FLOOR, 90/48B, Bhangel, New Delhi, Ghaziabad, Delhi 110017",https://www.sai-ielts.com/,Phone Number Not Found,Phone Number Not Found,28.6032398,77.4504142,
https://www.google.com/maps/place/Study+Smart+-+Study+Abroad+Consultancy+%26+Classroom+IELTS+Coaching+in+Delhi/data=!4m7!3m6!1s0x390ce25da9f07291:0xd2983a4bc399f4b9!8m2!3d28.534164!4d77.242784!16s%2Fg%2F1ptz53z8t!19sChIJkXLwqV3iDDkRufSZw0s6mNI?authuser=0&hl=en&rclk=1,Study Smart - Study Abroad Consultancy & Classroom IELTS Coaching in Delhi,"Third Floor, M-10, Block M, Greater Kailash II, Greater Kailash, New Delhi, Delhi 110048",https://www.studysmart.co.in/?utm_source=GMB&utm_medium=Organic&utm_campaign=Delhi,9513238155,9513238155,28.534164,77.242784,
https://www.google.com/maps/place/The+Study+Point/data=!4m7!3m6!1s0x390ce21c55dc01e7:0xfd60a16fb76010e2!8m2!3d28.5340079!4d77.2090613!16s%2Fg%2F11bxfq1x_z!19sChIJ5wHcVRziDDkR4hBgt2-hYP0?authuser=0&hl=en&rclk=1,The Study Point,"2nd Floor, E-1/12, Malviya Nagar Rd, Block E, Malviya Nagar, New Delhi, Delhi 110017",Not Found,9810077719,9810077719,28.5340079,77.2090613,
https://www.google.com/maps/place/Y-Axis/data=!4m7!3m6!1s0x390ce3607036239d:0x4ae2a2b7c1882de7!8m2!3d28.6305706!4d77.2247533!16s%2Fg%2F11h04gb_xp!19sChIJnSM2cGDjDDkR5y2Iwbei4ko?authuser=0&hl=en&rclk=1,Y-Axis,"Narain Manzil, 24, Barakhamba Rd, Fire Brigade Lane, Connaught Place, New Delhi, Delhi 110001",https://www.y-axis.com/coaching/?utm_source=google&utm_medium=gmb&utm_campaign=Connaught_Place_New_Delhi,7670800001,7670800001,28.6305706,77.2247533,
https://www.google.com/maps/place/IELTS+Coaching+in+MalviyaNagar/data=!4m7!3m6!1s0x390ce21956efccb7:0x5ad5ccce73bdf016!8m2!3d28.5319305!4d77.2081082!16s%2Fg%2F11gdgx6zk6!19sChIJt8zvVhniDDkRFvC9c87M1Vo?authuser=0&hl=en&rclk=1,IELTS Coaching in MalviyaNagar,"Block L, Malviya Nagar, New Delhi, Delhi 110017",Not Found,8368231404,8368231404,28.5319305,77.2081082,
https://www.google.com/maps/place/Achiever%27s+Point/data=!4m7!3m6!1s0x390d030d1e116a3f:0xfaaa47f3feb6de13!8m2!3d28.5509312!4d77.2048839!16s%2Fg%2F1tf6_9vn!19sChIJP2oRHg0DDTkRE962_vNHqvo?authuser=0&hl=en&rclk=1,Achiever's Point,"G-4, near PNB Bank, Hauz Khas Market, Kharera, Hauz Khas, New Delhi, Delhi 110016",https://achieverspoint.com/,9899004123,9899004123,28.5509312,77.2048839,
https://www.google.com/maps/place/%F0%9D%97%9C%F0%9D%97%98%F0%9D%97%9F%F0%9D%97%A7%F0%9D%97%A6+%F0%9D%97%96%F0%9D%97%BC%F0%9D%97%AE%F0%9D%97%B0%F0%9D%97%B5%F0%9D%97%B6%F0%9D%97%BB%F0%9D%97%B4%F0%9D%97%B4+%F0%9D%97%9C%F0%9D%97%BB%F0%9D%97%B1%F0%9D%97%B6%F0%9D%97%AE/data=!4m7!3m6!1s0x390d02ef8f5cd4d9:0xd4c83789c0001cfa!8m2!3d28.5927113!4d77.0408472!16s%2Fg%2F11g6yp0sxz!19sChIJ2dRcj-8CDTkR-hwAwIk3yNQ?authuser=0&hl=en&rclk=1,ùóúùóòùóüùóßùó¶ ùóñùóºùóÆùó∞ùóµùó∂ùóªùó¥ùó¥ ùóúùóªùó±ùó∂ùóÆ,"City Centre Mall, 203, Sector 12 Dwarka, Dwarka, New Delhi, Delhi 110077",https://ieltscoachingindia.com/,9643001519,9643001519,28.5927113,9,
https://www.google.com/maps/place/Emjay+Coaching/data=!4m7!3m6!1s0x390cfd67c78d795d:0x6ae9e6e49594599d!8m2!3d28.6471876!4d77.2046105!16s%2Fg%2F11gdkwvyr0!19sChIJXXmNx2f9DDkRnVmUleTm6Wo?authuser=0&hl=en&rclk=1,Emjay Coaching,"4, Mezzanine Floor, OFFICE, Jhandewalan, Flatted Factory Complex A, New Delhi, Delhi 110055",http://www.emjaycoaching.com/,9891698364,9891698364,28.6471876,77.2046105,
https://www.google.com/maps/place/Study+n+Skills/data=!4m7!3m6!1s0x390d1bb6f82cd789:0x439532f78c822376!8m2!3d28.5852443!4d77.0706497!16s%2Fg%2F11vr0k7sxf!19sChIJidcs-LYbDTkRdiOCjPcylUM?authuser=0&hl=en&rclk=1,Study n Skills,"C-398, Second floor, 110075, near kc restaurant, Sector 7 Dwarka, New Delhi, Delhi 110077",Not Found,9310792188,9310792188,28.5852443,77.0706497,
https://www.google.com/maps/place/IELTS+Coaching/data=!4m7!3m6!1s0x390cfdc986a3a7bd:0x4a4982d184f40d72!8m2!3d28.6291627!4d77.2249081!16s%2Fg%2F11h2l33jjp!19sChIJvaejhsn9DDkRcg30hNGCSUo?authuser=0&hl=en&rclk=1,IELTS Coaching,"811, Arunachal building, beside metro gate, no 4, Barakhamba Rd, Connaught Place, Delhi 110001",Not Found,9560110964,9560110964,28.6291627,77.2249081,
https://www.google.com/maps/place/IELTS+COACHING+%7C+English+Speaking+Course+In+Laxmi+Nagar/data=!4m7!3m6!1s0x390cfd247c4b83f9:0x1fc7cb1447e328da!8m2!3d28.6323539!4d77.2797512!16s%2Fg%2F11c6cfb7_t!19sChIJ-YNLfCT9DDkR2ijjRxTLxx8?authuser=0&hl=en&rclk=1,IELTS COACHING | English Speaking Course In Laxmi Nagar,"Ground Floor , office no. 423, shakarpur, Vikas Marg, near Bank of Badoda, Laxmi Nagar, Delhi, 110092",http://ieltscoachinginstitute.com/,9582876677,9582876677,28.6323539,77.2797512,
https://www.google.com/maps/place/British+Study+Mart/data=!4m7!3m6!1s0x390d049fdba55579:0xb3d0d2c661c6d73a!8m2!3d28.6372269!4d77.0999768!16s%2Fg%2F11b8t787rc!19sChIJeVWl258EDTkROtfGYcbS0LM?authuser=0&hl=en&rclk=1,British Study Mart,"36/1 First floor, Block 36, Ashok Nagar, New Delhi, Delhi, 110018",http://www.britishstudymart.com/,8376812352,8376812352,0,77.0999768,
https://www.google.com/maps/place/Mindmine+Global/data=!4m7!3m6!1s0x390d1b3d8c14d951:0x41a55a52d58e3412!8m2!3d28.5868705!4d77.071833!16s%2Fg%2F11b77s969v!19sChIJUdkUjD0bDTkREjSO1VJapUE?authuser=0&hl=en&rclk=1,Mindmine Global,"H-973, Palam Extension, Ramphal Chowk Rd, Opp. Radha Ki Rasoi Restaurant, Sector 7 Dwarka, New Delhi, Delhi 110077",https://www.mindmineglobal.com/,9810953973,9810953973,8,951,
https://www.google.com/maps/place/Essence+Point/data=!4m7!3m6!1s0x390cfd0dc6fe18ad:0x8f5a6d2e02e33538!8m2!3d28.6345999!4d77.2843631!16s%2Fg%2F11gk10t8nn!19sChIJrRj-xg39DDkRODXjAi5tWo8?authuser=0&hl=en&rclk=1,Essence Point,"Metro Pillar No 55, Metro Station Laxmi Nagar, Block DA-10 2nd floor Shakarpur, Main Rd, near Goverment No.1 School Nirman Vihar, Laxmi Nagar, Delhi, 110092",https://essencepoint.in/,8750172786,8750172786,28.6345999,77.2843631,
https://www.google.com/maps/place/Movesabroad/data=!4m7!3m6!1s0x390d031a35c5b6f1:0x7f572aa1dadbcda3!8m2!3d28.693648!4d77.1501226!16s%2Fg%2F11gnrfcs9c!19sChIJ8bbFNRoDDTkRo83b2qEqV38?authuser=0&hl=en&rclk=1,Movesabroad,"4th Floor, Aggarwal Cyber Plaza 1, 407, Netaji Subhash Place, Pitampura, New Delhi, Delhi 110034",https://www.ieltscoachingindelhi.in/,9811542833,9811542833,28.693648,77.1501226,
https://www.google.com/maps/place/IELTS+COACHING+DWARKA/data=!4m7!3m6!1s0x390d1b164fffffa5:0x7a6d08ccf748db14!8m2!3d28.5849945!4d77.0723638!16s%2Fg%2F11c6t0hjhb!19sChIJpf__TxYbDTkRFNtI98wIbXo?authuser=0&hl=en&rclk=1,IELTS COACHING DWARKA,"Sector 7 Dwarka E - 521 3rd Floor West Delhi, New Delhi, Delhi 110077",http://www.ieltscoachingindwarka.co.in/,9871989913,9871989913,28.5849945,77.0723638,
https://www.google.com/maps/place/Seek+Academy/data=!4m7!3m6!1s0x390d04a13abfc737:0x8b63fcd699a7e603!8m2!3d28.6326483!4d77.0983244!16s%2Fg%2F12hl50bdl!19sChIJN8e_OqEEDTkRA-anmdb8Y4s?authuser=0&hl=en&rclk=1,Seek Academy,"D-138, Jail Rd, near Gurudwara, Block D, Gopal Nagar, Fateh Nagar, New Delhi, Delhi, 110058",https://seekacademy.in/,8588880679,8588880679,28.6326483,77.0983244,
https://www.google.com/maps/place/EFA+ENGLISH+INSTITUTE/data=!4m7!3m6!1s0x390d0144b5444813:0xde6781eaa9a41317!8m2!3d28.7177401!4d77.1259999!16s%2Fg%2F11h51hwbx8!19sChIJE0hEtUQBDTkRFxOkqeqBZ94?authuser=0&hl=en&rclk=1,EFA ENGLISH INSTITUTE,"SG Shopping Complex, 202 , 2ND FLOOR, D.C. CHOWK, Sector 9, Rohini, New Delhi, Delhi 110085",http://www.efaenglishinstitute.com/,7982042877,7982042877,28.7177401,77.1259999,
https://www.google.com/maps/place/THE+INSTITUTE+OF+STANDARD+BRITISH+ENGLISH/data=!4m7!3m6!1s0x390d1d60fbd6af0b:0x4a74f27667b16ae!8m2!3d28.5559878!4d77.2413064!16s%2Fg%2F11qslx58y7!19sChIJC6_W-2AdDTkRrhZ7ZidPpwQ?authuser=0&hl=en&rclk=1,THE INSTITUTE OF STANDARD BRITISH ENGLISH,"E -13, Block E, East of Kailash, New Delhi, Delhi 110065",Not Found,9818577111,9818577111,28.5559878,77.2413064,
https://www.google.com/maps/place/Cambridge+IELTS+Coaching+Centre/data=!4m7!3m6!1s0x390d01face7dc49d:0x3de0fb31af9b4f5d!8m2!3d28.7343469!4d77.1140114!16s%2Fg%2F11h3v6rmzw!19sChIJncR9zvoBDTkRXU-brzH74D0?authuser=0&hl=en&rclk=1,Cambridge IELTS Coaching Centre,"First Floor Unit No 157, Ambedkar Bhawan, G3S Mall, Apposite, Sector 11, Rohini, Delhi, 110089",https://cambridgeieltscoachingcentre.com/,8595102298,8595102298,28.7343469,77.1140114,
https://www.google.com/maps/place/Samit%27s+Academy/data=!4m7!3m6!1s0x390d1ac4af2104d9:0x4bc7b2d156d50670!8m2!3d28.589301!4d77.0565216!16s%2Fg%2F11c5_15hk4!19sChIJ2QQhr8QaDTkRcAbVVtGyx0s?authuser=0&hl=en&rclk=1,Samit's Academy,"206, Vardhaman Dwarkadheesh Plaza 2nd floor, Plot 1 Sector 10, Main Market, Dwarka, New Delhi, Delhi 110075",https://samitsenglishacademy.com/,9811999032,9811999032,28.589301,9,
https://www.google.com/maps/place/ABE+Academy+of+British+English/data=!4m7!3m6!1s0x390cfd77c374b707:0x249c957e40ba4df5!8m2!3d28.6981706!4d77.2056831!16s%2Fg%2F11cn0pypbr!19sChIJB7d0w3f9DDkR9U26QH6VnCQ?authuser=0&hl=en&rclk=1,ABE Academy of British English,"126, First Floor, Mall Rd, Kingsway Camp, GTB Nagar, Delhi, 110033",https://www.britishenglish.in/,1140364892,1140364892,28.6981706,77.2056831,
"https://www.google.com/maps/place/Oracle+International+Language+Institute+-+Best+German,+IELTS,+English,+Spanish,+French+Institute+in+Delhi/data=!4m7!3m6!1s0x390cfd738a5f6085:0x8a9a1d4b404430d2!8m2!3d28.6987666!4d77.2055162!16s%2Fg%2F11j8h3f42p!19sChIJhWBfinP9DDkR0jBEQEsdmoo?authuser=0&hl=en&rclk=1","Oracle International Language Institute - Best German, IELTS, English, Spanish, French Institute in Delhi","1st Floor, GTB nagar metro station, Gate No.1, 103 & 105, Mall Rd, near GTB Nagar, Kingsway Camp, New Delhi, Delhi 110009",https://www.oracleglobaleducation.com/,9999745645,9999745645,28.6987666,77.2055162,
https://www.google.com/maps/place/Intensive+Institute/data=!4m7!3m6!1s0x390ce5d819660d61:0xca31098e32f884dc!8m2!3d28.5494681!4d77.2975746!16s%2Fg%2F11pds_g_q1!19sChIJYQ1mGdjlDDkR3IT4Mo4JMco?authuser=0&hl=en&rclk=1,Intensive Institute,"Thokar No-6, GROUND FLOOR, E-89, near POLICE STATION, Shaheen Bagh, Okhla, New Delhi, Delhi 110025",http://intensiveclasses.com/,7677559255,7677559255,28.5494681,77.2975746,
https://www.google.com/maps/place/IELTS+First/data=!4m7!3m6!1s0x390d038fa100d969:0x270ebcc5e6f21074!8m2!3d28.7000001!4d77.1185105!16s%2Fg%2F11g0g6gqy6!19sChIJadkAoY8DDTkRdBDy5sW8Dic?authuser=0&hl=en&rclk=1,IELTS First,"2nd Floor, F-19/8, Pocket 19, Sector 8, Rohini, Delhi, 110085",https://www.ieltsfirst.com/,18008917465,18008917465,28.7000001,77.1185105,
https://www.google.com/maps/place/IELTS+band+achievers/data=!4m7!3m6!1s0x390d1b700b996b79:0xc61aefb59ec75ac4!8m2!3d28.5840001!4d77.0715682!16s%2Fg%2F11q9m8n5df!19sChIJeWuZC3AbDTkRxFrHnrXvGsY?authuser=0&hl=en&rclk=1,IELTS band achievers,"E-559, Main Ramphal Chowk Market, Sector 7 Dwarka, Dwarka, Delhi, 110077",Not Found,9910113567,9910113567,28.5840001,77.0715682,
"https://www.google.com/maps/place/Oracle+International+Language+Institute+-+Best+Ielts,+English,French,German,Spanish,Arabic,Chinese,+Korean+Classes+in+Delhi/data=!4m7!3m6!1s0x390cfd49ce5d563b:0x76933fe29809ad22!8m2!3d28.6329264!4d77.2222289!16s%2Fg%2F11fyz99r40!19sChIJO1Zdzkn9DDkRIq0JmOI_k3Y?authuser=0&hl=en&rclk=1","Oracle International Language Institute - Best Ielts, English,French,German,Spanish,Arabic,Chinese, Korean Classes in Delhi","Gate No. 4, Metro Station, 3rd Floor, Mythri House, M, 5A, Middle Cir, near Rajiv Chowk, Connaught Place, New Delhi, Delhi 110001",http://www.oracleglobaleducation.com/,9953988288,9953988288,28.6329264,77.2222289,
https://www.google.com/maps/place/Zenit+Excelencia/data=!4m7!3m6!1s0x390d190d8c15ea3f:0x58342b427226f037!8m2!3d28.6277705!4d77.2217526!16s%2Fg%2F11h89djz8c!19sChIJP-oVjA0ZDTkRN_AmckIrNFg?authuser=0&hl=en&rclk=1,Zenit Excelencia,"602, Block A Naurang House, 21, KG Marg, Connaught Place, New Delhi, Delhi 110001",https://www.zenitexcelencia.com/,9711630475,9711630475,28.6277705,77.2217526,
https://www.google.com/maps/place/Abroadsify/data=!4m7!3m6!1s0x390d049faf0e3e8d:0x66193001761e3590!8m2!3d28.6418062!4d77.1053796!16s%2Fg%2F11bw2fq9g5!19sChIJjT4Or58EDTkRkDUedgEwGWY?authuser=0&hl=en&rclk=1,Abroadsify,"5A/10, Block 6, Tilak Nagar, New Delhi, Delhi, 110018",https://abroadsify.com/,9871912512,9871912512,28.6418062,77.1053796,
https://www.google.com/maps/place/Multilingua+-+Best+English+Speaking+Institute+in+Delhi+%7C+IELTS+Coaching+in+Delhi+%7C+PTE+Coaching+in+Delhi/data=!4m7!3m6!1s0x390ce1fb182b1d79:0xd8e177a851414f6d!8m2!3d28.5203063!4d77.20239!16s%2Fg%2F11dxkx882j!19sChIJeR0rGPvhDDkRbU9BUah34dg?authuser=0&hl=en&rclk=1,Multilingua - Best English Speaking Institute in Delhi | IELTS Coaching in Delhi | PTE Coaching in Delhi,"F 76, 3rd Floor, Saidulajab, Near SAKET Metro (Exit from Gate No.2), Delhi, New Delhi, Delhi 110030",https://multilingua.in/english-language-institute-saket/,9520730111,9520730111,28.5203063,77.20239,
https://www.google.com/maps/place/Good+Luck+Academy/data=!4m7!3m6!1s0x390d019ad9b7efe7:0x7a962aee94b534c6!8m2!3d28.7180061!4d77.1776304!16s%2Fg%2F1pt_3hn76!19sChIJ5--32ZoBDTkRxjS1lO4qlno?authuser=0&hl=en&rclk=1,Good Luck Academy,"C-62 Gali no.8 Indra park, Shalamar, Shalimar Village, New Delhi, Delhi 110088",http://goodluck_academy.com/,9911137790,9911137790,28.7180061,77.1776304,
https://www.google.com/maps/place/GMATinsight+GMAT+%7C+GRE+%7C+SAT+%7C+IELTS+Best+Coaching+in+Malviya+Nagar+South+New+Delhi/data=!4m7!3m6!1s0x390ce21cdb87f0af:0xc01989226f75a657!8m2!3d28.5341117!4d77.2101416!16s%2Fg%2F11dxdcb3pv!19sChIJr_CH2xziDDkRV6Z1byKJGcA?authuser=0&hl=en&rclk=1,GMATinsight GMAT | GRE | SAT | IELTS Best Coaching in Malviya Nagar South New Delhi,"Bus stop, GMATinsight NIL-26AB 1st Floor, near Malviya Nagar, Malviya Nagar, New Delhi, Delhi 110017",http://www.gmatinsight.com/,9891333772,9891333772,28.5341117,77.2101416,
https://www.google.com/maps/place/ACE+Institute/data=!4m7!3m6!1s0x390d015fb5d08aa7:0x623d6de131ef6609!8m2!3d28.7086421!4d77.1240432!16s%2Fg%2F1tm1nvbx!19sChIJp4rQtV8BDTkRCWbvMeFtPWI?authuser=0&hl=en&rclk=1,ACE Institute,"2nd floor, C-9/2, opp. metro pillar no 395, above Chaayos, Pocket 9, Sector 7, Rohini, New Delhi, Delhi, 110085",http://www.aptalkedu.com/,9250907020,9250907020,6,77.1240432,
https://www.google.com/maps/place/Immigration+Experts+-+Study+Abroad+Consultants/data=!4m7!3m6!1s0x390d03f21cce4ba3:0x229b239cc7a1e838!8m2!3d28.6380173!4d77.0978109!16s%2Fg%2F11mx4h5bbf!19sChIJo0vOHPIDDTkROOihx5wjmyI?authuser=0&hl=en&rclk=1,Immigration Experts - Study Abroad Consultants,"1st Floor, Overseas Education & Immigration Experts, 4A/36, near Axis Bank, Block 4A, Tilak Nagar, New Delhi, Delhi, 110018",https://globaleducationconsultants.in/,7982044606,7982044606,28.6380173,77.0978109,
https://www.google.com/maps/place/iMindvity+Education+-+IELTS+Coaching/data=!4m7!3m6!1s0x390d051e7d5b7a7b:0x2cd00e315d1b2e80!8m2!3d28.6292268!4d77.0696554!16s%2Fg%2F11tg7k_c8f!19sChIJe3pbfR4FDTkRgC4bXTEO0Cw?authuser=0&hl=en&rclk=1,iMindvity Education - IELTS Coaching,"A-38, A-Block, Vikaspuri, New Delhi, Delhi, 110018",https://imindvity.com/,9319236591,9319236591,28.6292268,77.0696554,
"https://www.google.com/maps/place/Happiness+Institute+of+English+Speaking,+Public+Speaking+and+Personality+Development/data=!4m7!3m6!1s0x390cfd1088c36957:0x2d51e1bb39041552!8m2!3d28.631136!4d77.2779408!16s%2Fg%2F11pr32qntc!19sChIJV2nDiBD9DDkRUhUEObvhUS0?authuser=0&hl=en&rclk=1","Happiness Institute of English Speaking, Public Speaking and Personality Development","no.5, Metro Station Laxmi Nagar, Building No.126, D- Block Office No. 202, Gali No.6 , Metro Gate, Laxminagar, Delhi, New Delhi, Delhi 110092",https://happinessinstitute.in/,8076106087,8076106087,28.631136,77.2779408,
https://www.google.com/maps/place/BRITISH+IELTS+COACHING+ACADEMY+IN+ROHINI+DELHI/data=!4m7!3m6!1s0x390d013101555547:0x336b59e4e1951621!8m2!3d28.7346535!4d77.1136909!16s%2Fg%2F11bzs5nz3v!19sChIJR1VVATEBDTkRIRaV4eRZazM?authuser=0&hl=en&rclk=1,BRITISH IELTS COACHING ACADEMY IN ROHINI DELHI,"157 Plot No-5 Garg Trade Centre, Pocket 1, Sector 11, Rohini, Delhi, 110085",http://www.british-ielts-coaching-academy.co.in/,1143317770,1143317770,28.7346535,77.1136909,
https://www.google.com/maps/place/CHARMS+EDUCATION/data=!4m7!3m6!1s0x390d055cfafe8ed7:0x6e507afad82043ea!8m2!3d28.6356202!4d77.0972852!16s%2Fg%2F11gl259j_f!19sChIJ147--lwFDTkR6kMg2Pp6UG4?authuser=0&hl=en&rclk=1,CHARMS EDUCATION,"Gate No. 3, First Floor, Metro Station, 27/3 A, Jail Rd, near Tilak Nagar, Ashok Nagar, New Delhi, Delhi, 110018",http://www.charms.co.in/,8826895585,8826895585,28.6356202,77.0972852,
"https://www.google.com/maps/place/Best+Ielts,+Pte,+and+Oet+coaching-+Application+Uni/data=!4m7!3m6!1s0x390d05cb3d662943:0x237cae05f6b895a7!8m2!3d28.632367!4d77.0981136!16s%2Fg%2F11ss87qlnp!19sChIJQylmPcsFDTkRp5W49gWufCM?authuser=0&hl=en&rclk=1","Best Ielts, Pte, and Oet coaching- Application Uni","E-66, Jail Rd, BA Block, Gurunanak Pura, Tilak Nagar, New Delhi, Delhi, 110058",http://www.applicationuni.com/,8588884567,8588884567,662943,77.0981136,
https://www.google.com/maps/place/CHRYSLER+IELTS+%26+HOME+TUITION/data=!4m7!3m6!1s0x390cfd1f477ea267:0xd5fb76e28733be6d!8m2!3d28.6925685!4d77.1954284!16s%2Fg%2F11rstg2s4m!19sChIJZ6J-Rx_9DDkRbb4zh-J2-9U?authuser=0&hl=en&rclk=1,CHRYSLER IELTS & HOME TUITION,"B-59, Vijay Nagar Marg, New Gupta Colony, GTB Nagar, Delhi, 110033",Not Found,9873934834,9873934834,28.6925685,77.1954284,
https://www.google.com/maps/place/The+English+Academy/data=!4m7!3m6!1s0x390cfba0e44025af:0x48918b064a061415!8m2!3d28.6804679!4d77.3178632!16s%2Fg%2F11bwn1zdz9!19sChIJryVA5KD7DDkRFRQGSgaLkUg?authuser=0&hl=en&rclk=1,The English Academy,"POCKET -F-199- A DILSHAD GARDEN Opposite CHETAK COMPLEX*, near SAI VATIKA CHOWK, Dilshad Garden, New Delhi, Delhi 110095",Not Found,9650871461,9650871461,28.6804679,77.3178632,
https://www.google.com/maps/place/GlenEagles+School+For+English/data=!4m7!3m6!1s0x390d04ebffffffff:0xd981c98a0fd01d98!8m2!3d28.6318687!4d77.0694223!16s%2Fg%2F1tdl92ss!19sChIJ_____-sEDTkRmB3QD4rJgdk?authuser=0&hl=en&rclk=1,GlenEagles School For English,"C-66, Block C, Vikaspuri, New Delhi, Delhi, 110018",https://gleneagles.in/,9810592357,9810592357,28.6318687,77.0694223,
https://www.google.com/maps/place/Cambridge+English+Academy+%28+CEA+%29+India+Pvt.Ltd/data=!4m7!3m6!1s0x390cfcaef98d7baf:0xab9e79af8102fc2d!8m2!3d28.6322406!4d77.2800809!16s%2Fg%2F1vj5ylp4!19sChIJr3uN-a78DDkRLfwCga95nqs?authuser=0&hl=en&rclk=1,Cambridge English Academy ( CEA ) India Pvt.Ltd,"H-58 , 1st Floor, Main, Vikas Marg, above Sbi Bank, opp. Metro Pillar Number 37, Laxmi Nagar, Delhi, 110092",https://cambridgeenglishacademy.com/,9667728146,9667728146,28.6322406,77.2800809,
https://www.google.com/maps/place/English+Kraft+%7C+IELTS+%7C+OET%7C+PTE+%7C+Best+IELTS+Coaching+Classes+in+East+Delhi/data=!4m7!3m6!1s0x390cfb0b601a76d7:0x118eef4d45a6324a!8m2!3d28.6726041!4d77.3096297!16s%2Fg%2F11f3g4pvhx!19sChIJ13YaYAv7DDkRSjKmRU3vjhE?authuser=0&hl=en&rclk=1,English Kraft | IELTS | OET| PTE | Best IELTS Coaching Classes in East Delhi,"250, opposite jhilmil gurudwara, Pratap Khand, Jhilmil Colony, Delhi, 110095",https://englishkraft.com/,8920151101,8920151101,28.6726041,45,
https://www.google.com/maps/place/Official+IELTS+Test+Centre+Delhi+%28Nehru+Place%29+%7C+IELTS+IDP+India/data=!4m7!3m6!1s0x390ce377f131a9ef:0x4f9a7b8894771947!8m2!3d28.550713!4d77.2504217!16s%2Fg%2F11g4c7517z!19sChIJ76kx8XfjDDkRRxl3lIh7mk8?authuser=0&hl=en&rclk=1,Official IELTS Test Centre Delhi (Nehru Place) | IELTS IDP India,"Unit No. 313, 3rd Floor, F, International Trade Tower, Nehru Place, New Delhi, Delhi 110019",https://www.ieltsidpindia.com/?utm_source=GMB&utm_medium=Traffic&utm_campaign=GoogleGMB,1146517888,1146517888,28.550713,77.2504217,
https://www.google.com/maps/place/BEST+PTE+COACHING/data=!4m7!3m6!1s0x390d1bb0996dd583:0x17007a9ac6a6e4bc!8m2!3d28.5850046!4d77.072068!16s%2Fg%2F11g233f0fh!19sChIJg9VtmbAbDTkRvOSmxpp6ABc?authuser=0&hl=en&rclk=1,BEST PTE COACHING,"E - 521 3RD FLOOR CABIN NO 4, NEAR, Ramphal Chowk Rd, next to BJP OFFICE, Block E, Sector 7 Dwarka, Dwarka, New Delhi, Delhi, 110077",http://www.ptecoachingindwarka.co.in/,8447037669,8447037669,28.5850046,77.072068,
https://www.google.com/maps/place/English+Ninjas/data=!4m7!3m6!1s0x390d03d5043aa0f7:0xde9a79c3149fa13!8m2!3d28.7001487!4d77.1184394!16s%2Fg%2F11mw0h4pby!19sChIJ96A6BNUDDTkRE_pJMZyn6Q0?authuser=0&hl=en&rclk=1,English Ninjas,"2nd Floor, F-19/8, Pocket 19, Sector 8, Rohini, Delhi, 110085",https://www.englishninjas.in/,9999179449,9999179449,5043,77.1184394,
https://www.google.com/maps/place/APSA+-+Study+Abroad+%26+Overseas+Education+Consultant+in+Gurugram/data=!4m7!3m6!1s0x390d1948463f3a51:0x20227de732da3012!8m2!3d28.470279!4d77.045293!16s%2Fg%2F11hy_8bd9h!19sChIJUTo_RkgZDTkREjDaMud9IiA?authuser=0&hl=en&rclk=1,APSA - Study Abroad & Overseas Education Consultant in Gurugram,"Ground Floor, NM 1, Block M, Old DLF Colony, Sector 14, Gurugram, Haryana 122007",https://www.apsa.in/,9999375572,9999375572,28.470279,77.045293,
https://www.google.com/maps/place/Metier+Academy/data=!4m7!3m6!1s0x390d1f0126f50655:0xf8cfda6a112368b0!8m2!3d28.505792!4d77.1745949!16s%2Fg%2F11fkkzccyv!19sChIJVQb1JgEfDTkRsGgjEWraz_g?authuser=0&hl=en&rclk=1,Metier Academy,"2/1, First and Second Floor, Metro Stations, CDR Chowk, opp. to Chattarpur, near to Aggarwal Sweets, Dr Ambedkar Colony, Chhatarpur, New Delhi, Delhi 110074",https://metieracademy.in/,9773745396,9773745396,28.505792,77.1745949,
https://www.google.com/maps/place/British+Council/data=!4m7!3m6!1s0x390cfd337dcfbf97:0x85ce45e0a4f972e6!8m2!3d28.6271013!4d77.2225856!16s%2Fg%2F1td5pnk8!19sChIJl7_PfTP9DDkR5nL5pOBFzoU?authuser=0&hl=en&rclk=1,British Council,"17, KG Marg, Atul Grove Road, Janpath, Connaught Place, New Delhi, Delhi 110001",https://www.britishcouncil.in/,1169032222,1169032222,28.6271013,77.2225856,
https://www.google.com/maps/place/The+EnglishAcademy/data=!4m7!3m6!1s0x390d19ad5c000001:0xf29953a46c6344cf!8m2!3d28.469255!4d77.044336!16s%2Fg%2F11f4r36744!19sChIJAQAAXK0ZDTkRz0RjbKRTmfI?authuser=0&hl=en&rclk=1,The EnglishAcademy,"NM 23, Block M, Old DLF Colony, Sector 14, Gurugram, Haryana 122007",Not Found,9871330529,9871330529,28.469255,77.044336,
https://www.google.com/maps/place/Singh+Study+Circle/data=!4m7!3m6!1s0x390d036bbfffffff:0xc3fc7e1cd13d4183!8m2!3d28.6450527!4d77.1183086!16s%2Fg%2F1vxctt3t!19sChIJ____v2sDDTkRg0E90Rx-_MM?authuser=0&hl=en&rclk=1,Singh Study Circle,"J4/1, 2nd Floor, Rajouri Garden, New Delhi, Delhi 110027",http://www.singhstudycircle.org/,8010131131,8010131131,4183,77.1183086,
https://www.google.com/maps/place/Priti+Edusources/data=!4m7!3m6!1s0x390d0163c1a016ef:0x9ca50beedc066787!8m2!3d28.7110131!4d77.132779!16s%2Fg%2F11v0k41fzd!19sChIJ7xagwWMBDTkRh2cG3O4LpZw?authuser=0&hl=en&rclk=1,Priti Edusources,"B-62,Second Floor, Prashant Vihar Rd, opp. CRPF Public School, Prashant Vihar, Sector 14, Rohini, Delhi, 110085",https://pritiedusources.com/,9625917447,9625917447,28.7110131,77.132779,
https://www.google.com/maps/place/Tathastu+Education/data=!4m7!3m6!1s0x390cfdf23caf10d1:0x552c5b782aef2419!8m2!3d28.6983905!4d77.1366479!16s%2Fg%2F11d_23hycs!19sChIJ0RCvPPL9DDkRGSTvKnhbLFU?authuser=0&hl=en&rclk=1,Tathastu Education,"Building No 15, 3rd Floor, opposite Metro Pillar 350, Kapil Vihar, Pitampura, Delhi, 110034",https://tathastuedu.com/,9821188788,9821188788,28.6983905,77.1366479,
https://www.google.com/maps/place/IELTS+Coaching/data=!4m7!3m6!1s0x390ce3150ae52a5b:0xf21867b6d6b620de!8m2!3d28.5692956!4d77.2440347!16s%2Fg%2F11n0b98c1y!19sChIJWyrlChXjDDkR3iC21rZnGPI?authuser=0&hl=en&rclk=1,IELTS Coaching,"2nd Floor, L-102, Block I, Lajpat Nagar II, Lajpat Nagar, New Delhi, Delhi 110024",Not Found,Phone Number Not Found,Phone Number Not Found,28.5692956,77.2440347,
https://www.google.com/maps/place/American+British+Language+Excellence+%7C+Best+IELTS+%7C+OET+%7C+PTE+%7C+TOEFL+%7C+SPOKEN+ENGLISH+Classes+in+Uttam+Nagar/data=!4m7!3m6!1s0x390d0562fe651523:0xa15004deea26ccf2!8m2!3d28.624073!4d77.0629337!16s%2Fg%2F11wng551cr!19sChIJIxVl_mIFDTkR8swm6t4EUKE?authuser=0&hl=en&rclk=1,American British Language Excellence | Best IELTS | OET | PTE | TOEFL | SPOKEN ENGLISH Classes in Uttam Nagar,"First floor, METRO PILLAR, W/246, B/2, Najafgarh Rd, above cobb show room, Uttam Nagar East, New Delhi, Delhi 110059",http://americanbritishlanguageexcellence.com/,8920484836,8920484836,28.624073,77.0629337,
https://www.google.com/maps/place/Academy+of+British+English/data=!4m7!3m6!1s0x390cfd309eebed77:0x79ecb1cdc8c01995!8m2!3d28.6477872!4d77.1207013!16s%2Fg%2F1tmkjbs5!19sChIJd-3rnjD9DDkRlRnAyM2x7Hk?authuser=0&hl=en&rclk=1,Academy of British English,"J-1/163, Lower Ground 406, opp. Metro Pillar Number 337, Rajouri Garden, New Delhi, Delhi 110027",http://britishenglish.in/,9999971313,9999971313,28.6477872,77.1207013,
https://www.google.com/maps/place/British+Academy+School+of+English+Language/data=!4m7!3m6!1s0x390ce3de15001efb:0x43229935afb30612!8m2!3d28.5401247!4d77.2619842!16s%2Fg%2F1pp2ts40p!19sChIJ-x4AFd7jDDkREgazrzWZIkM?authuser=0&hl=en&rclk=1,British Academy School of English Language,"Second Floor, Saroj Tower, Guru Ravidas Marg, above Bank of Baroda, Block K, Kalkaji, New Delhi, Delhi 110019",Not Found,9711995636,9711995636,28.5401247,77.2619842,
https://www.google.com/maps/place/Emjay+Coaching+%7C+Best+IELTS+Coaching+in+Delhi/data=!4m7!3m6!1s0x390d038ad3402ab9:0x99f43e61169801e3!8m2!3d28.64151!4d77.172798!16s%2Fg%2F11stw339tv!19sChIJuSpA04oDDTkR4wGYFmE-9Jk?authuser=0&hl=en&rclk=1,Emjay Coaching | Best IELTS Coaching in Delhi,"First Floor, 3378, Pusa Wall St, South Patel Nagar, Block 5, Patel Nagar, New Delhi, Delhi 110060",http://www.emjaycoaching.com/,9891698364,9891698364,28.64151,77.172798,
https://www.google.com/maps/place/Concordia+Overseas+Education/data=!4m7!3m6!1s0x390cfb0659196d35:0xb455fa27fa5b09ba!8m2!3d28.6397847!4d77.2943695!16s%2Fg%2F11f613klcy!19sChIJNW0ZWQb7DDkRuglb-if6VbQ?authuser=0&hl=en&rclk=1,Concordia Overseas Education,"203, Second Floor, Savitri Sadan 11, community Center, C Block, Preet Vihar, Delhi, 110092",Not Found,9999664292,9999664292,28.6397847,77.2943695,
https://www.google.com/maps/place/Humstudy+-+IELTS+-+TOEFL+-+GRE+-+GMAT+-+SAT/data=!4m7!3m6!1s0x390ce1c13d53d595:0x50e7bccca1f26c50!8m2!3d28.5221719!4d77.2147601!16s%2Fg%2F11rylkpyk9!19sChIJldVTPcHhDDkRUGzyocy851A?authuser=0&hl=en&rclk=1,Humstudy - IELTS - TOEFL - GRE - GMAT - SAT,"J - 403, 2nd Floor, Avantika Building, Block J, Saket, New Delhi, Delhi 110017",Not Found,9953542838,9953542838,53,77.2147601,
https://www.google.com/maps/place/EESA+Academy+-+Best+Spoken+English+%7C+IELTS+%7C+PTE+%7C+OET+%7C+SELT+%7C+DUOLINGO+%7C+LanguageCert+ESOL+classes+in+Mahavir+Enclave./data=!4m7!3m6!1s0x390d1b132f638e71:0x417ebedc75a7d568!8m2!3d28.6039947!4d77.0825757!16s%2Fg%2F11jsr1cxvp!19sChIJcY5jLxMbDTkRaNWnddy-fkE?authuser=0&hl=en&rclk=1,EESA Academy - Best Spoken English | IELTS | PTE | OET | SELT | DUOLINGO | LanguageCert ESOL classes in Mahavir Enclave.,"Metro Station Gate, RZ-A-1/14B,first floor,Vijay Enclave, Dabri-Palam road, Gali No 1, near Dashrath Puri, New Delhi, Delhi 110045",http://www.expert-educational.com/,9810126691,9810126691,28.6039947,77.0825757,
https://www.google.com/maps/place/CEA/data=!4m7!3m6!1s0x390cfd4c6cf612f1:0xb854abcdc8075c55!8m2!3d28.6315748!4d77.2795649!16s%2Fg%2F11g1lrs0zl!19sChIJ8RL2bEz9DDkRVVwHyM2rVLg?authuser=0&hl=en&rclk=1,CEA,"114, Laxmi Nagar, Vikas Marg, New Delhi, Delhi 110092",https://ceaoet.com/,1141838029,1141838029,28.6315748,77.2795649,
https://www.google.com/maps/place/Essence+point+%7C+Best+IELTS+%7CPTE+%7COET%7CCELPIP%7CSpoken+English+coaching+in+Noida+15/data=!4m7!3m6!1s0x390ce45ea620b9c3:0x37647fcdb368ecc3!8m2!3d28.5822399!4d77.3130351!16s%2Fg%2F11c1cvw_8f!19sChIJw7kgpl7kDDkRw-xos81_ZDc?authuser=0&hl=en&rclk=1,Essence point | Best IELTS |PTE |OET|CELPIP|Spoken English coaching in Noida 15,"3rd floor, Horam Complex, near Union Bank, Naya Bans, Naya Bans Village, Sector 15, Noida, Uttar Pradesh 201301",http://essencepoint.in/,9953072786,9953072786,28.5822399,77.3130351,
https://www.google.com/maps/place/British+English+Academy/data=!4m7!3m6!1s0x390d04c102944eb9:0xc5d9250fd7d17978!8m2!3d28.6295325!4d77.0763517!16s%2Fg%2F11bx569bjc!19sChIJuU6UAsEEDTkReHnR1w8l2cU?authuser=0&hl=en&rclk=1,British English Academy,"C-9, First Floor Near Janakpuri West Metro Station New Krishna Park, Janakpuri, Vikaspuri, New Delhi, Delhi 110018",http://www.britishenglishacademy.co.in/,1143506868,1143506868,28.6295325,77.0763517,
"https://www.google.com/maps/place/Asta+Achievers,+OET+classes+in+Gurgaon,+IELTS+classes+in+Gurgaon,+PTE+classes,+OET+institute,+IELTS+institute,+PTE+institute/data=!4m7!3m6!1s0x390d192da7c1bda9:0x6a5cefa5bae294c6!8m2!3d28.4716837!4d77.092834!16s%2Fg%2F11fz9y678n!19sChIJqb3Bpy0ZDTkRxpTiuqXvXGo?authuser=0&hl=en&rclk=1","Asta Achievers, OET classes in Gurgaon, IELTS classes in Gurgaon, PTE classes, OET institute, IELTS institute, PTE institute","Plot No. 27, Rapid Metro St, Golf Crse Rd, near DLF Phase-1, Sector 28, Chakkarpur, Gurugram, Haryana 122002",https://astaachiever.com/,9991406306,9991406306,28.4716837,77.092834,
https://www.google.com/maps/place/BISL/data=!4m7!3m6!1s0x390cfd9607224661:0x48fb402172b9db40!8m2!3d28.6319406!4d77.2792587!16s%2Fg%2F11gjt5n1ll!19sChIJYUYiB5b9DDkRQNu5ciFA-0g?authuser=0&hl=en&rclk=1,BISL,"A-113, First Floor Laxmi Nagar , Main, Vikas Marg, New Delhi, Delhi 110092",Not Found,Phone Number Not Found,Phone Number Not Found,28.6319406,77.2792587,
https://www.google.com/maps/place/GMATinsight+GMAT+%7C+GRE+%7C+SAT+%7C+IELTS+Best+Coaching+Dwarka+New+Delhi/data=!4m7!3m6!1s0x390d1ad098de787f:0x43b6bf16765a1abd!8m2!3d28.5975174!4d77.0497066!16s%2Fg%2F11ck2j46q0!19sChIJf3jemNAaDTkRvRpadha_tkM?authuser=0&hl=en&rclk=1,GMATinsight GMAT | GRE | SAT | IELTS Best Coaching Dwarka New Delhi,"Domino Pizza, GMATinsight 205-206, 2nd Floor, Vardhman JayPee Plaza, Sec-4 (Main Market, Plot No.6, Adjacent:, opp. Ayushman Hospital, Dwarka, New Delhi, Delhi 110075",http://www.gmatinsight.com/,9999687183,9999687183,28.5975174,77.0497066,
https://www.google.com/maps/place/Lingua+Franca:+IELTS+and+spoken+English+center/data=!4m7!3m6!1s0x390ce3533cd65341:0xab772d77aba8ecd!8m2!3d28.630096!4d77.2775322!16s%2Fg%2F11dx8qj1rp!19sChIJQVPWPFPjDDkRzY66etdytwo?authuser=0&hl=en&rclk=1,Lingua Franca: IELTS and spoken English center,"U-87, 1st and Ground Floor, Shakarpur, Delhi, 110092",https://linguafranca.net.in/,9953311616,9953311616,28.630096,77.2775322,
https://www.google.com/maps/place/Edwise+International/data=!4m7!3m6!1s0x390d1d841aaaaaab:0xc15ca7fcaa3ec424!8m2!3d28.5688728!4d77.2233444!16s%2Fg%2F1v8ky_gf!19sChIJq6qqGoQdDTkRJMQ-qvynXME?authuser=0&hl=en&rclk=1,Edwise International,"N-13, Opp. Flyover Above Punjab National Bank, South Extension I, Block N, New Delhi, Delhi 110049",https://www.edwiseinternational.com/,1147005333,1147005333,28.5688728,77.2233444,
https://www.google.com/maps/place/GEETA+KHURANA+CAMPUS+%7C+BEST+IELTS+COACHING+CENTER+IN+JANAKPURI+%7CTILAK+NAGAR+%7CRAJOURI+GARDEN%7C+DELHI%7C+IELTS+INSTITUTE/data=!4m7!3m6!1s0x390d0498b8726423:0x267e04ffdca1d545!8m2!3d28.6360925!4d77.0956248!16s%2Fg%2F11f0l3zqxx!19sChIJI2RyuJgEDTkRRdWh3P8EfiY?authuser=0&hl=en&rclk=1,GEETA KHURANA CAMPUS | BEST IELTS COACHING CENTER IN JANAKPURI |TILAK NAGAR |RAJOURI GARDEN| DELHI| IELTS INSTITUTE,"gate no.4, metro station, 15/4, 1st Floor, opposite tilak nagar, Prem Nagar, New Delhi, Delhi 110018",https://geetakhuranacampus.co.in/,9810840047,9810840047,28.6360925,77.0956248,
https://www.google.com/maps/place/GoToUniversity/data=!4m7!3m6!1s0x390cfd5ba8685705:0x772ce994eff3a684!8m2!3d28.629375!4d77.2222586!16s%2Fg%2F11fnnxfh1q!19sChIJBVdoqFv9DDkRhKbz75TpLHc?authuser=0&hl=en&rclk=1,GoToUniversity,"Building 1202, Kailash, 26 KG Marg, 1, New Delhi, Delhi 110001",https://www.gotouniversity.in/,8595371317,8595371317,28.629375,77.2222586,
https://www.google.com/maps/place/Mukheja+Ielts+and+Study+Abroad/data=!4m7!3m6!1s0x390d03ba8f70a7e5:0xa7954f0873b46ed5!8m2!3d28.6447558!4d77.1037594!16s%2Fg%2F11qnkm4k_1!19sChIJ5adwj7oDDTkR1W60cwhPlac?authuser=0&hl=en&rclk=1,Mukheja Ielts and Study Abroad,"A 8, Pocket A, Shyam Nagar, Vishnu Garden, New Delhi, Delhi, 110018",http://mukhejastudy.com/,9355119800,9355119800,28.6447558,77.1037594,
https://www.google.com/maps/place/Best+IELTS+and+PTE+Coaching+%7C+British+Academy+%7C+English+Speaking+and+OET+Classes+in+Janakpuri/data=!4m7!3m6!1s0x390d04db4a823bbb:0xbf4811090165bdea!8m2!3d28.6248983!4d77.0679304!16s%2Fg%2F11s51v1lx4!19sChIJuzuCStsEDTkR6r1lAQkRSL8?authuser=0&hl=en&rclk=1,Best IELTS and PTE Coaching | British Academy | English Speaking and OET Classes in Janakpuri,"Ground Floor, Bus Stand, A-1/13, Pankha Rd, behind A-1, near Aakash Institute, Block A1, Janakpuri, New Delhi, Delhi, 110058",https://britishacademydelhi.com/,8826708404,8826708404,28.6248983,77.0679304,
https://www.google.com/maps/place/E-world/data=!4m7!3m6!1s0x390d19ad5c000001:0xddcb623c228d2953!8m2!3d28.4698783!4d77.0439269!16s%2Fg%2F11vblrgj7n!19sChIJAQAAXK0ZDTkRUymNIjxiy90?authuser=0&hl=en&rclk=1,E-world,"Basement, M-2, opposite Shree Radha Krishna Temple, Block M, Old DLF Colony, Sector 14, Gurugram, Haryana 122001",https://www.eworldcareeracademy.in/,7042390066,7042390066,28.4698783,77.0439269,
https://www.google.com/maps/place/Bafel+Dwarka/data=!4m7!3m6!1s0x390d1b3d95555555:0x1bc94e178a721a51!8m2!3d28.5880458!4d77.0706031!16s%2Fg%2F11v6frfbz3!19sChIJVVVVlT0bDTkRURpyihdOyRs?authuser=0&hl=en&rclk=1,Bafel Dwarka,"A-56 Ground Floor, Sector 7, Block A, Palam Extension, Dwarka, Delhi, 110077",https://bafel.co.in/,9212779992,9212779992,95555555,77.0706031,
https://www.google.com/maps/place/Navya+English+Institute/data=!4m7!3m6!1s0x390cfbfb170db0af:0x1ee00d3a11181e99!8m2!3d28.6463648!4d77.2953063!16s%2Fg%2F11g0dfl7__!19sChIJr7ANF_v7DDkRmR4YEToN4B4?authuser=0&hl=en&rclk=1,Navya English Institute,"Ground Floor, 39, Main Gagan Vihar, Gagan Vihar, Krishna Nagar, New Delhi, Delhi, 110051",Not Found,9810238652,9810238652,28.6463648,77.2953063,
https://www.google.com/maps/place/Callens+Institute+-+Best+English+and+Foreign+Languages+Institute+In+Delhi+%5BDwarka+Mor%5D/data=!4m7!3m6!1s0x390d05a761956e05:0xa8881a2e5ee940f6!8m2!3d28.6169708!4d77.0335157!16s%2Fg%2F11h4tcm3jq!19sChIJBW6VYacFDTkR9kDpXi4aiKg?authuser=0&hl=en&rclk=1,Callens Institute - Best English and Foreign Languages Institute In Delhi [Dwarka Mor],"Sai Builder, Block B, Sewak Park, Dwarka Mor, New Delhi, Delhi, 110059",https://institute.callensaxen.com/,9369359996,9369359996,28.6169708,77.0335157,
https://www.google.com/maps/place/iae+GLOBAL+India/data=!4m7!3m6!1s0x390d04a32afffb2b:0x19bc737a7299288f!8m2!3d28.6492269!4d77.1244767!16s%2Fg%2F11bw3dk2x5!19sChIJK_v_KqMEDTkRjyiZcnpzvBk?authuser=0&hl=en&rclk=1,iae GLOBAL India,"A-8, near Prachin Balaji Mandir, Block A2, Block A, Rajouri Garden, New Delhi, Delhi, 110027",https://iaeglobal.in/,9599948866,9599948866,28.6492269,77.1244767,
https://www.google.com/maps/place/Britfort+Academy-+Best+IELTS%2FOET%2FPTE%2FTOEFL%2FSpoken+English+Coaching+in+Delhi+%7C+OET+%26+IELTS+Online+Training+in+New+Delhi/data=!4m7!3m6!1s0x390d0561ea5711c1:0x402fc06a66471abb!8m2!3d28.6306151!4d77.2776023!16s%2Fg%2F11lgxn45qh!19sChIJwRFX6mEFDTkRuxpHZmrAL0A?authuser=0&hl=en&rclk=1,Britfort Academy- Best IELTS/OET/PTE/TOEFL/Spoken English Coaching in Delhi | OET & IELTS Online Training in New Delhi,"Metro Station Laxmi Nagar, Vikas Marg, Veer Savarkar Block, Block U, Shakarpur Khas, New Delhi, Delhi, 110092",http://www.britfort.com/,9645114443,9645114443,28.6306151,77.2776023,
https://www.google.com/maps/place/The+Oxford+Academy+-+English+Speaking+Course+in+English+Tuition+Classes+I+English+Institute/data=!4m7!3m6!1s0x390cfd611977c36f:0xa73b951708d7b95d!8m2!3d28.6480201!4d77.1985613!16s%2Fg%2F11bzrfrjyx!19sChIJb8N3GWH9DDkRXbnXCBeVO6c?authuser=0&hl=en&rclk=1,The Oxford Academy - English Speaking Course in English Tuition Classes I English Institute,"2nd Floor, T-2387, Faiz Rd, opposite Jaggi Hotel, Block T, Naiwala, Karol Bagh, New Delhi, Delhi, 110005",https://oxfordacademydelhi.com/,8178485348,8178485348,28.6480201,77.1985613,
https://www.google.com/maps/place/British+St.+Columbia+Academy+Best+IELTS+%2F+Spoken+English+%2F+French+%2F+German+%2F+Spanish+and+computer+classes+in+Delhi/data=!4m7!3m6!1s0x390d035d0aaec5e7:0x976441d3732d55b2!8m2!3d28.6331296!4d77.0977798!16s%2Fg%2F11c1xdxz77!19sChIJ58WuCl0DDTkRslUtc9NBZJc?authuser=0&hl=en&rclk=1,British St. Columbia Academy Best IELTS / Spoken English / French / German / Spanish and computer classes in Delhi,"First Floor, E-31 A, Jail Rd, opposite to standard Burfee, Pocket 8, Block E, Gurunanak Pura, Tilak Nagar, New Delhi, Delhi, 110018",http://www.bsca.in/,8470042229,8470042229,28.6331296,77.0977798,
https://www.google.com/maps/place/TC+Global+-+West+Delhi+%28The+Chopras%29/data=!4m7!3m6!1s0x1467f5dfd239f765:0x12faa882304bf9ef!8m2!3d28.6446315!4d77.126932!16s%2Fg%2F1t_wmr39!19sChIJZfc50t_1ZxQR7_lLMIKo-hI?authuser=0&hl=en&rclk=1,TC Global - West Delhi (The Chopras),"2nd floor C, 4, Ring Rd, above Haldiram‚Äôs, Block C, Rajouri Garden, New Delhi, Delhi, 110027",https://tcglobal.com/,1143810000,1143810000,28.6446315,77.126932,
https://www.google.com/maps/place/Swiss+School+Of+Language/data=!4m7!3m6!1s0x390cfb51baaaaaab:0xb987b6cf2a33b967!8m2!3d28.6391639!4d77.2851471!16s%2Fg%2F1tfgh60x!19sChIJq6qqulH7DDkRZ7kzKs-2h7k?authuser=0&hl=en&rclk=1,Swiss School Of Language,"metro station, Near, Plot no 4, DDA Building, Laxmi Nagar District centre, Nirman Vihar, Swasthya Vihar, Delhi 110092",http://swissschooloflanguage.net/,9811296073,9811296073,28.6391639,77.2851471,
https://www.google.com/maps/place/Simpli+English-+Online+English+Speaking+Course+Delhi/data=!4m7!3m6!1s0x390d036b27c35a9f:0x51fb7834ec0e0b68!8m2!3d28.6563798!4d77.1665405!16s%2Fg%2F11mvxbsbc8!19sChIJn1rDJ2sDDTkRaAsO7DR4-1E?authuser=0&hl=en&rclk=1,Simpli English- Online English Speaking Course Delhi,"35/36 Second Floor, West Patel Nagar, New Delhi, Delhi 110008",https://simplienglish.com/,7837712314,7837712314,28.6563798,77.1665405,
https://www.google.com/maps/place/Dawn+English+Academy/data=!4m7!3m6!1s0x390ce2532cfcde4b:0x678e15ae7b62ce03!8m2!3d28.5708199!4d77.2408441!16s%2Fg%2F11c3_5b5fw!19sChIJS978LFPiDDkRA85ie64Vjmc?authuser=0&hl=en&rclk=1,Dawn English Academy,"First Floor, E-34, Central Market, Lajpat Nagar II, Lajpat Nagar, New Delhi, Delhi 110024",https://www.englishexams.in/,9654349066,9654349066,28.5708199,77.2408441,
https://www.google.com/maps/place/VERBAL+HUB/data=!4m7!3m6!1s0x390ce48559aaaaab:0x71023d2eae50dae5!8m2!3d28.5956835!4d77.2978437!16s%2Fg%2F11t7r67r4p!19sChIJq6qqWYXkDDkR5dpQri49AnE?authuser=0&hl=en&rclk=1,VERBAL HUB,"113, near Upkar Apartments, CV, Mayur Vihar, Delhi, 110091",https://www.verbalhub.com/,7042994789,7042994789,2,77.2978437,
https://www.google.com/maps/place/kangokiwi+%7C+IELTS+%26+PTE+coaching/data=!4m7!3m6!1s0x390cfdb3ec9be02d:0x278e5f0bba8fcee9!8m2!3d28.6311702!4d77.2780009!16s%2Fg%2F11hz049vkd!19sChIJLeCb7LP9DDkR6c6Pugtfjic?authuser=0&hl=en&rclk=1,kangokiwi | IELTS & PTE coaching,"3rd floor, d, 100, Vikas Marg, Veer Savarkar Block, Block D, Laxmi Nagar, Delhi, 110092",http://www.kangokiwi.com/,9953747909,9953747909,28.6311702,77.2780009,
https://www.google.com/maps/place/British+Lingua/data=!4m7!3m6!1s0x390cfcad3d4fcfa5:0xf101ddf94ce1558f!8m2!3d28.6292433!4d77.2746428!16s%2Fg%2F1vnrjdb4!19sChIJpc9PPa38DDkRj1XhTPndAfE?authuser=0&hl=en&rclk=1,British Lingua,"Metro Pillar 22, 1/48, Vikas Marg, near Gurudwara, Laxmi Nagar, Lalita Park, Laxmi Nagar, Delhi, 110092",https://britishlingua.com/,9999107254,9999107254,4,77.2746428,
"https://www.google.com/maps/place/Success+Forum,+New+Delhi/data=!4m7!3m6!1s0x390cfdecfb24fdcd:0x915017b0718cb76e!8m2!3d28.6980854!4d77.2058794!16s%2Fg%2F11rhrm3lb3!19sChIJzf0k--z9DDkRbreMcbAXUJE?authuser=0&hl=en&rclk=1","Success Forum, New Delhi","Office 114 A, Ground Floor, Near Metro Station Gate 3 and 4, Mall Rd, GTB Nagar, New Delhi, Delhi 110033",https://www.successforumedu.com/,8082824200,8082824200,28.6980854,77.2058794,
"https://www.google.com/maps/place/MOTION+COACHING+CENTER+:+CUET,+NDA,+Delhi+Police+Constable%2FSI,+CTET,+SSC,+Bank/data=!4m7!3m6!1s0x390d1e251eb1d43b:0x6c425b877eb9c2c3!8m2!3d28.501076!4d77.1836971!16s%2Fg%2F11f08wt2r2!19sChIJO9SxHiUeDTkRw8K5fodbQmw?authuser=0&hl=en&rclk=1","MOTION COACHING CENTER : CUET, NDA, Delhi Police Constable/SI, CTET, SSC, Bank","D-23-B, 60 Feet Rd, opp. Yes Bank, near Dr. Lal Path Lab, Dr Ambedkar Colony, Chhatarpur, Delhi, New Delhi, Delhi 110074",https://motioncoachingcenter.com/,9200920038,9200920038,28.501076,77.1836971,
https://www.google.com/maps/place/Educrafters+Commerce/data=!4m7!3m6!1s0x390d0496c9943023:0xe1e8d770ddfd62e8!8m2!3d28.6338094!4d77.0964769!16s%2Fg%2F11f3jw5vjx!19sChIJIzCUyZYEDTkR6GL93XDX6OE?authuser=0&hl=en&rclk=1,Educrafters Commerce,"Block 71, prem nagar , janakpuri, Janakpuri, Tilak Nagar, New Delhi, Delhi 110058",https://www.facebook.com/100016343501949,7678111893,7678111893,28.6338094,77.0964769,
https://www.google.com/maps/place/Crosslink+Education+Consulting/data=!4m7!3m6!1s0x390d05d535df186b:0x31e76f8db51686cd!8m2!3d28.6328591!4d77.0978217!16s%2Fg%2F11g_zr2ts_!19sChIJaxjfNdUFDTkRzYYWtY1v5zE?authuser=0&hl=en&rclk=1,Crosslink Education Consulting,"E31A, 2nd floor, Jail Rd, above Dell, Pocket 8, Block E, Gurunanak Pura, Tilak Nagar, New Delhi, Delhi, 110058",https://crosslinkconsulting.in/,8130019690,8130019690,28.6328591,77.0978217,
https://www.google.com/maps/place/IELTS+IDP+India/data=!4m7!3m6!1s0x390d03a6e373e189:0xa81c9ee707726416!8m2!3d28.6933784!4d77.1497116!16s%2Fg%2F11rw8zxfmy!19sChIJieFz46YDDTkRFmRyB-eeHKg?authuser=0&hl=en&rclk=1,IELTS IDP India,"14th Floor Aggarwal Millennium 2, Tower Netaji Subhash Place, Pitampura, New Delhi, Delhi 110034",https://www.ieltsidpindia.com/?utm_source=GMB&utm_medium=Traffic&utm_campaign=GoogleGMB,18001024544,18001024544,28.6933784,77.1497116,
https://www.google.com/maps/place/The+English+Lingua/data=!4m7!3m6!1s0x390d0541581b7f4b:0xa37ddad32d98e690!8m2!3d28.618931!4d77.0321406!16s%2Fg%2F11bwyhbr59!19sChIJS38bWEEFDTkRkOaYLdPafaM?authuser=0&hl=en&rclk=1,The English Lingua,"Opposite, 1st Floor, No Metro Pillar 783,Uttam Nagar, Najafgarh Road, 113, Block A, Sewak Park, Dwarka, New Delhi, Delhi 110075",Not Found,8527989362,8527989362,28.618931,77.0321406,
https://www.google.com/maps/place/British+Academy+%7C+English+Speaking+Course+%7C+IELTS+%7C+PTE+%7C+OET/data=!4m7!3m6!1s0x390d05c5d89af377:0x2ecfb7acd1256c21!8m2!3d28.6193352!4d77.0311952!16s%2Fg%2F11vs0w2pgk!19sChIJd_Oa2MUFDTkRIWwl0ay3zy4?authuser=0&hl=en&rclk=1,British Academy | English Speaking Course | IELTS | PTE | OET,"Piller No. 781, 3rd floor, Plot No. 1, above Grover Sweets, near Dwarka Mor, Dwarka Mor, Uttam Nagar, Bhagwati Garden, Nawada, New Delhi, Delhi, 110059",https://britishacademydelhi.com/,7683019695,7683019695,28.6193352,77.0311952,
https://www.google.com/maps/place/EDUGENIUS+ACADEMY/data=!4m7!3m6!1s0x390d1dd810a55bf7:0xd2a89f300c43175d!8m2!3d28.556302!4d77.174803!16s%2Fg%2F11h0zmqkdm!19sChIJ91ulENgdDTkRXRdDDDCfqNI?authuser=0&hl=en&rclk=1,EDUGENIUS ACADEMY,"First floor, UG-10, Delhi Metro Magenta Line, Baba Gangnath Market, Munirka, New Delhi, Delhi 110067",Not Found,9711087513,9711087513,28.556302,77.174803,
https://www.google.com/maps/place/BCL+-British+College+of+Language%C2%AE/data=!4m7!3m6!1s0x390d055d1aa73a5b:0xf7a93e507821df14!8m2!3d28.6264078!4d77.0685671!16s%2Fg%2F11gjhf954h!19sChIJWzqnGl0FDTkRFN8heFA-qfc?authuser=0&hl=en&rclk=1,BCL -British College of Language¬Æ,"2nd floor Delhi House, A-11, Najafgarh Rd, opp. Metro Pillar No. 631, A-Block, Vikaspuri, New Delhi, Delhi, 110018",https://www.britishcollegeoflanguage.com/,9911537041,9911537041,28.6264078,77.0685671,
https://www.google.com/maps/place/Brzee+Academy/data=!4m7!3m6!1s0x390d199d2e16e1bf:0x2f97b713a5f80b3d!8m2!3d28.5040237!4d77.0544992!16s%2Fg%2F11g9mb40_w!19sChIJv-EWLp0ZDTkRPQv4pRO3ly8?authuser=0&hl=en&rclk=1,Brzee Academy,"SCO 63, (Above Pizza Hut) HUDA Market, Palam Vihar Rd, behind HP Petrol Pump, Sector 23A, Gurugram, Haryana 122015",http://www.brzee.academy/,9910127392,9910127392,28.5040237,77.0544992,
https://www.google.com/maps/place/ANGLAIS+Study+Overseas+%26+School+of+Skills+Development.+Study+Abroad+Consultants/data=!4m7!3m6!1s0x390d03f3e4ca9661:0x8ebe79cc4fac0bc0!8m2!3d28.6887128!4d77.1330108!16s%2Fg%2F11rsshwy06!19sChIJYZbK5PMDDTkRwAusT8x5vo4?authuser=0&hl=en&rclk=1,ANGLAIS Study Overseas & School of Skills Development. Study Abroad Consultants,"5th Floor, Aggarwal Prestige Mall, 512, Rd Number 44, Saint Nagar Delhi, Rani Bagh, Pitampura, Delhi, 110034",https://anglais.in/index.php,9319828287,9319828287,28.6887128,77.1330108,
https://www.google.com/maps/place/AK+Educational+Group/data=!4m7!3m6!1s0x390cef9a0731915f:0x1b829e2ee17c03f4!8m2!3d28.5705987!4d77.3891859!16s%2Fg%2F11cs47pjv9!19sChIJX5ExB5rvDDkR9AN84S6eghs?authuser=0&hl=en&rclk=1,AK Educational Group,"TOWER-G, PRATEEK WISTERIA, Prateek Inner Rd, Prateek Wisteria, Sector 77, Noida, Uttar Pradesh 201301",https://www.facebook.com/AKEducationalGroup/,9815041575,9815041575,28.5705987,77.3891859,
https://www.google.com/maps/place/Best+IELTS+and+PTE+coaching-+Speak+N+Skills+%7C+English+Speaking+and+OET+classes+for+nurses+in+Uttam+Nagar/data=!4m7!3m6!1s0x390d05be2fe7ead5:0x40cb59f9584a84be!8m2!3d28.6240846!4d77.0630367!16s%2Fg%2F11g_qrqcxt!19sChIJ1ernL74FDTkRvoRKWPlZy0A?authuser=0&hl=en&rclk=1,Best IELTS and PTE coaching- Speak N Skills | English Speaking and OET classes for nurses in Uttam Nagar,"shop 24/7, Wz 256 b/3 Opposite 657 metro pillar number, above the new, opposite Grover sweets, Uttam Nagar East, Delhi, 110059",https://speaknskills.com/,7982757636,7982757636,28.6240846,77.0630367,
"https://www.google.com/maps/place/Best+Spoken+English+Classes-+Speak+N+Skills+Dwarka+for+IELTS,+PTE,+OET+Coaching/data=!4m7!3m6!1s0x390d05f114a35211:0x6e15ebc309e023a!8m2!3d28.5852386!4d77.0706379!16s%2Fg%2F11tg0mll1q!19sChIJEVKjFPEFDTkROgKeMLxe4QY?authuser=0&hl=en&rclk=1","Best Spoken English Classes- Speak N Skills Dwarka for IELTS, PTE, OET Coaching","third floor, C-398, Ramphal Chowk, near kc restaurant, Block C, Sector 7 Dwarka, Dwarka, New Delhi, Delhi, 110077",https://speaknskills.com/,8295768551,8295768551,28.5852386,77.0706379,
"https://www.google.com/maps/place/IMS+Manya+-+North+Campus+%7C+Study+Abroad+Consultant+-+GRE,+GMAT,+SAT+Prep+%26+IGCSE%2FIB+Coaching+in+New+Delhi/data=!4m7!3m6!1s0x390d1da1bdd945c1:0x25a8e9c180193fbb!8m2!3d28.7042097!4d77.1895737!16s%2Fg%2F11h1rwr0ls!19sChIJwUXZvaEdDTkRuz8ZgMHpqCU?authuser=0&hl=en&rclk=1","IMS Manya - North Campus | Study Abroad Consultant - GRE, GMAT, SAT Prep & IGCSE/IB Coaching in New Delhi","Pillar 23, B-3, 1st Floor, above CaratLane Store, opposite Metro Station Model Town, Gujranwala Town Part 1, Model Town, New Delhi, Delhi 110009",http://www.manyagroup.com/,8976806523,8976806523,28.7042097,77.1895737,
https://www.google.com/maps/place/Eguroo/data=!4m7!3m6!1s0x390d19b2a887cb6f:0x75a2f6afc5651365!8m2!3d28.4692001!4d77.0442249!16s%2Fg%2F11byxhkn89!19sChIJb8uHqLIZDTkRZRNlxa_2onU?authuser=0&hl=en&rclk=1,Eguroo,"M-43, Block M, Old DLF Colony, Sector 14, Gurugram, Haryana 122001",https://www.eguroo.in/,9210457777,9210457777,28.4692001,77.0442249,
https://www.google.com/maps/place/Aim+Ladder+%7C+Study+Abroad+Consultant+in+Dwarka+New+Delhi/data=!4m7!3m6!1s0x390d1b772ab30e93:0x22633c0987f3ad3d!8m2!3d28.5877003!4d77.029952!16s%2Fg%2F11fk175gvm!19sChIJkw6zKncbDTkRPa3zhwk8YyI?authuser=0&hl=en&rclk=1,Aim Ladder | Study Abroad Consultant in Dwarka New Delhi,"First Floor, A2/231, Pocket A2, Pocket B, Sector 17 Dwarka, Dwarka, New Delhi, Delhi, 110078",https://www.aimladder.in/,9667005776,9667005776,28.5877003,77.029952,
https://www.google.com/maps/place/Fateh+Education/data=!4m7!3m6!1s0x1467f665caa3069d:0x9d6bed6295b1cdb7!8m2!3d28.6456767!4d77.1686666!16s%2Fg%2F11b5wch63f!19sChIJnQajymX2ZxQRt82xlWLta50?authuser=0&hl=en&rclk=1,Fateh Education,"2/11, W Patel Nagar Rd, opposite metro pillar no. 189, Block 2, East Patel Nagar, Patel Nagar, Delhi, New Delhi, Delhi 110008",http://www.fateheducation.com/,1169058900,1169058900,28.6456767,77.1686666,
"https://www.google.com/maps/place/IMS+Connaught+Place+-+Leader+in+CAT,+XAT,+CMAT,+SNAP,+NMAT+Entrance+Prep/data=!4m7!3m6!1s0x390cfd3146875fdf:0xb3be7a5d98c3bb36!8m2!3d28.6301044!4d77.2255613!16s%2Fg%2F1v3hyc36!19sChIJ31-HRjH9DDkRNrvDmF16vrM?authuser=0&hl=en&rclk=1","IMS Connaught Place - Leader in CAT, XAT, CMAT, SNAP, NMAT Entrance Prep","Upper Ground, Kanchanjunga Building, Barakhamba Rd, Fire Brigade Lane, Connaught Place, New Delhi, Delhi 110001",https://www.imsindia.com/,7045127127,7045127127,28.6301044,77.2255613,
https://www.google.com/maps/place/NIPSTec/data=!4m7!3m6!1s0x390ce21c3f306537:0xab73252618bf2aa0!8m2!3d28.5349118!4d77.2104615!16s%2Fg%2F1hc1sp7vd!19sChIJN2UwPxziDDkRoCq_GCYlc6s?authuser=0&hl=en&rclk=1,NIPSTec,"D-82, 1st Floor, Main Market, Shivalik Rd, Shvalik, DDA Flats, Malviya Nagar, New Delhi, Delhi 110017",https://www.nipstec.com/,9971091034,9971091034,28.5349118,77.2104615,
https://www.google.com/maps/place/Edugen/data=!4m7!3m6!1s0x390d1be99dad8757:0x5aa71366faa0e9a9!8m2!3d28.585234!4d77.0684148!16s%2Fg%2F11fl1016xj!19sChIJV4etnekbDTkRqemg-mYTp1o?authuser=0&hl=en&rclk=1,Edugen,"C-707, Shiksha Bharti School Rd, near Ramphal Chowk Road, Block C, Sector 7 Dwarka, Dwarka, Delhi, 110077",https://edugenstudy.in/,9355119700,9355119700,28.585234,77.0684148,
https://www.google.com/maps/place/IELTS+BAND+7+RDC+Ghaziabad/data=!4m7!3m6!1s0x390cf1bc16cb0ed7:0x4c2d139a22492fe3!8m2!3d28.6744193!4d77.4426852!16s%2Fg%2F11c7_yj3cn!19sChIJ1w7LFrzxDDkR4y9JIpoTLUw?authuser=0&hl=en&rclk=1,IELTS BAND 7 RDC Ghaziabad,"F-304, 4th Floor, Aditya Corporate Hub, RDC, Block 1, P & T Colony, Raj Nagar, Ghaziabad, Uttar Pradesh 201002",http://ieltsband7rdc.com/,7840860007,7840860007,28.6744193,77.4426852,
